1 34765U 97051LJ  26114.64133875  .00000770  00000+0  23390-3 0  9991
2 34765  86.3396 335.7418 0017630 134.7482 281.7993 14.40858105895275
